NORAD_CAT_ID,OBJECT_NAME,OBJECT_TYPE,EPOCH,MEAN_MOTION,ECCENTRICITY,INCLINATION,RA_OF_ASC_NODE,ARG_OF_PERICENTER,MEAN_ANOMALY,BSTAR,MEAN_MOTION_DOT,MEAN_MOTION_DDOT,TLE_LINE0,TLE_LINE1,TLE_LINE2,SEMIMAJOR_AXIS,PERIOD,APOGEE,PERIGEE,DECAYED
49164.0,STARLINK-3106,PAYLOAD,2022-08-10 19:01:33,14.96710974,0.0003113,70.0031,329.4882,256.8084,103.2727,-0.0001157,-1.415e-05,0.0,0 STARLINK-3106,1 49164U 21082AL  22222.79274863 -.00001415  00000-0 -11570-3 0  9993,2 49164  70.0031 329.4882 0003113 256.8084 103.2727 14.96710974 51886,6955.204000000002,96.211,579.234,574.904,0.0
49164.0,STARLINK-3106,PAYLOAD,2022-08-11 12:40:10,14.96719545,0.0003198,70.0007,327.6378,255.5428,104.5376,3.9591e-06,-4.6e-07,0.0,0 STARLINK-3106,1 49164U 21082AL  22223.52789872 -.00000046  00000-0  39591-5 0  9999,2 49164  70.0007 327.6378 0003198 255.5428 104.5376 14.96719545 51999,6955.178000000001,96.21,579.2669999999998,574.818,0.0
49164.0,STARLINK-3106,PAYLOAD,2022-08-11 17:28:53,14.96715362,0.0003215,70.0008,327.1337,255.5655,104.5147,0.00013478,1.451e-05,0.0,0 STARLINK-3106,1 49164U 21082AL  22223.72839589  .00001451  00000-0  13478-3 0  9996,2 49164  70.0008 327.1337 0003215 255.5655 104.5147 14.96715362 52026,6955.191,96.211,579.2919999999998,574.819,0.0
49164.0,STARLINK-3106,PAYLOAD,2022-08-12 12:43:44,14.96722701,0.0003227,70.0024,325.1167,256.8848,103.195,0.00038258,4.291e-05,0.0,0 STARLINK-3106,1 49164U 21082AL  22224.53037750  .00004291  00000-0  38258-3 0  9994,2 49164  70.0024 325.1167 0003227 256.8848 103.1950 14.96722701 52149,6955.168000000002,96.21,579.2769999999998,574.788,0.0
49164.0,STARLINK-3106,PAYLOAD,2022-08-12 17:32:27,14.96727359,0.0003232,70.0024,324.6125,256.8277,103.252,0.00040202,4.514e-05,0.0,0 STARLINK-3106,1 49164U 21082AL  22224.73087073  .00004514  00000-0  40202-3 0  9999,2 49164  70.0024 324.6125 0003232 256.8277 103.2520 14.96727359 52170,6955.153,96.21,579.266,574.77,0.0
49164.0,STARLINK-3106,PAYLOAD,2022-08-13 12:47:18,14.96720158,0.0003331,70.0028,322.5957,255.2183,104.8606,7.725600000000001e-05,7.93e-06,0.0,0 STARLINK-3106,1 49164U 21082AL  22225.53285590  .00000793  00000-0  77256-4 0  9997,2 49164  70.0028 322.5957 0003331 255.2183 104.8606 14.96720158 52298,6955.176,96.21,579.357,574.724,0.0
49164.0,STARLINK-3106,PAYLOAD,2022-08-13 17:36:01,14.96722087,0.0003327,70.0027,322.0918,257.2692,102.8095,0.00013133,1.412e-05,0.0,0 STARLINK-3106,1 49164U 21082AL  22225.73335121  .00001412  00000-0  13133-3 0  9997,2 49164  70.0027 322.0918 0003327 257.2692 102.8095 14.96722087 52328,6955.17,96.21,579.349,574.721,0.0
49164.0,STARLINK-3106,PAYLOAD,2022-08-14 11:14:38,14.96720614,0.0003327,70.0026,320.243,256.1104,103.9685,7.4872e-05,7.66e-06,0.0,0 STARLINK-3106,1 49164U 21082AL  22226.46850191  .00000766  00000-0  74872-4 0  9996,2 49164  70.0026 320.2430 0003327 256.1104 103.9685 14.96720614 52435,6955.174,96.21,579.3530000000002,574.725,0.0
49164.0,STARLINK-3106,PAYLOAD,2022-08-14 19:15:50,14.96711887,0.0003359,70.0021,319.4028,257.2595,102.8188,-0.00012449,-1.516e-05,0.0,0 STARLINK-3106,1 49164U 21082AL  22226.80266732 -.00001516  00000-0 -12449-3 0  9993,2 49164  70.0021 319.4028 0003359 257.2595 102.8188 14.96711887 52487,6955.201,96.211,579.403,574.73,0.0
49164.0,STARLINK-3106,PAYLOAD,2022-08-15 09:41:59,14.9671269,0.0003376999999999,70.0007,317.89,257.3997,102.6783,6.191399999999999e-05,6.17e-06,0.0,0 STARLINK-3106,1 49164U 21082AL  22227.40415896  .00000617  00000-0  61914-4 0  9998,2 49164  70.0007 317.8900 0003377 257.3997 102.6783 14.96712690 52571,6955.199000000001,96.211,579.413,574.715,0.0
49164.0,STARLINK-3106,PAYLOAD,2022-08-15 19:19:24,14.96716985,0.0003351999999999,70.0006,316.8813,257.1933,102.8851,9.9198e-05,1.044e-05,0.0,0 STARLINK-3106,1 49164U 21082AL  22227.80514814  .00001044  00000-0  99198-4 0  9992,2 49164  70.0006 316.8813 0003352 257.1933 102.8851 14.96716985 52639,6955.185,96.211,579.382,574.719,0.0
49164.0,STARLINK-3106,PAYLOAD,2022-08-16 04:56:50,14.96719047,0.0003328999999999,70.0005,315.8729,256.9521,103.1266,7.0529e-05,7.16e-06,0.0,0 STARLINK-3106,1 49164U 21082AL  22228.20613956  .00000716  00000-0  70529-4 0  9996,2 49164  70.0005 315.8729 0003329 256.9521 103.1266 14.96719047 52699,6955.179,96.21,579.359,574.729,0.0
49164.0,STARLINK-3106,PAYLOAD,2022-08-16 11:21:47,14.96715571,0.0003293,70.0006,315.2006,256.4802,103.599,0.00025084,2.781e-05,0.0,0 STARLINK-3106,1 49164U 21082AL  22228.47346784  .00002781  00000-0  25084-3 0  9996,2 49164  70.0006 315.2006 0003293 256.4802 103.5990 14.96715571 52730,6955.19,96.211,579.345,574.765,0.0
49164.0,STARLINK-3106,PAYLOAD,2022-08-17 05:00:25,14.96694695,0.0003275,70.0004,313.3516,252.1962,107.8839,0.00088541,0.00010052,0.0,0 STARLINK-3106,1 49164U 21082AL  22229.20862946  .00010052  00000-0  88541-3 0  9998,2 49164  70.0004 313.3516 0003275 252.1962 107.8839 14.96694695 52847,6955.255,96.212,579.3969999999998,574.842,0.0
49164.0,STARLINK-3106,PAYLOAD,2022-08-17 09:49:07,14.96716762,0.0003424,69.9999,312.8469,263.5427,96.5341,0.00014131,1.526e-05,0.0,0 STARLINK-3106,1 49164U 21082AL  22229.40911764  .00001526  00000-0  14131-3 0  9993,2 49164  69.9999 312.8469 0003424 263.5427  96.5341 14.96716762 52871,6955.186,96.211,579.433,574.67,0.0
49164.0,STARLINK-3106,PAYLOAD,2022-08-17 11:25:22,14.96717531,0.000344,69.9998,312.6787,264.0073,96.0694,0.00014586,1.578e-05,0.0,0 STARLINK-3106,1 49164U 21082AL  22229.47594919  .00001578  00000-0  14586-3 0  9990,2 49164  69.9998 312.6787 0003440 264.0073  96.0694 14.96717531 52884,6955.184,96.211,579.441,574.656,0.0
49164.0,STARLINK-3106,PAYLOAD,2022-08-18 11:28:55,14.96723306,0.0003282,70.0015,310.1585,256.8218,103.2574,0.00014036,1.516e-05,0.0,0 STARLINK-3106,1 49164U 21082AL  22230.47842370  .00001516  00000-0  14036-3 0  9991,2 49164  70.0015 310.1585 0003282 256.8218 103.2574 14.96723306 53033,6955.166,96.21,579.314,574.748,0.0
49164.0,STARLINK-3106,PAYLOAD,2022-08-18 17:53:52,14.96728264,0.0003174,70.0017,309.4864,250.2587,109.8229,0.00029391,3.275e-05,0.0,0 STARLINK-3106,1 49164U 21082AL  22230.74574860  .00003275  00000-0  29391-3 0  9991,2 49164  70.0017 309.4864 0003174 250.2587 109.8229 14.96728264 53074,6955.151,96.21,579.2230000000002,574.808,0.0
49164.0,STARLINK-3106,PAYLOAD,2022-08-19 11:32:29,14.96719365,0.0003376,70.0014,307.6378,259.4891,100.5887,0.00014869,1.611e-05,0.0,0 STARLINK-3106,1 49164U 21082AL  22231.48090107  .00001611  00000-0  14869-3 0  9996,2 49164  70.0014 307.6378 0003376 259.4891 100.5887 14.96719365 53186,6955.178000000001,96.21,579.391,574.695,0.0
49164.0,STARLINK-3106,PAYLOAD,2022-08-20 13:12:18,14.96713934,0.0003464999999999,70.0001,304.9486,259.1712,100.9056,5.0194e-05,4.83e-06,0.0,0 STARLINK-3106,1 49164U 21082AL  22232.55021643  .00000483  00000-0  50194-4 0  9992,2 49164  70.0001 304.9486 0003465 259.1712 100.9056 14.96713934 53346,6955.195,96.211,579.47,574.65,0.0
49164.0,STARLINK-3106,PAYLOAD,2022-08-20 14:48:32,14.96721817,0.0003396999999999,70.0001,304.7807,257.1916,102.8862,-0.00010498,-1.293e-05,0.0,0 STARLINK-3106,1 49164U 21082AL  22232.61704619 -.00001293  00000-0 -10498-3 0  9994,2 49164  70.0001 304.7807 0003397 257.1916 102.8862 14.96721817 53355,6955.170999999999,96.21,579.398,574.673,0.0
49164.0,STARLINK-3106,PAYLOAD,2022-08-21 13:15:52,14.96716474,0.0003304,70.0002,302.4271,255.185,104.8942,9.4396e-05,9.89e-06,0.0,0 STARLINK-3106,1 49164U 21082AL  22233.55269192  .00000989  00000-0  94396-4 0  9999,2 49164  70.0002 302.4271 0003304 255.1850 104.8942 14.96716474 53498,6955.187,96.211,579.35,574.754,0.0
49164.0,STARLINK-3106,PAYLOAD,2022-08-21 16:28:21,14.9671783,0.0003359,70.0,302.0906,256.2097,103.8688,9.8997e-05,1.042e-05,0.0,0 STARLINK-3106,1 49164U 21082AL  22233.68635480  .00001042  00000-0  98997-4 0  9992,2 49164  70.0000 302.0906 0003359 256.2097 103.8688 14.96717830 53518,6955.183000000001,96.211,579.384,574.712,0.0
49164.0,STARLINK-3106,PAYLOAD,2022-08-22 08:30:45,14.96704032,0.0003141,70.0005,300.4107,252.5759,107.5056,-1.5632000000000002e-05,-2.7000000000000004e-06,0.0,0 STARLINK-3106,1 49164U 21082AL  22234.35468895 -.00000270  00000-0 -15632-4 0  9990,2 49164  70.0005 300.4107 0003141 252.5759 107.5056 14.96704032 53612,6955.226,96.211,579.275,574.906,0.0
49164.0,STARLINK-3106,PAYLOAD,2022-08-22 16:31:56,14.96704757,0.0003173,70.0001,299.5696,256.1279,103.9527,-1.5332e-05,-2.67e-06,0.0,0 STARLINK-3106,1 49164U 21082AL  22234.68885051 -.00000267  00000-0 -15332-4 0  9996,2 49164  70.0001 299.5696 0003173 256.1279 103.9527 14.96704757 53663,6955.223000000001,96.211,579.295,574.881,0.0
49164.0,STARLINK-3106,PAYLOAD,2022-08-23 10:10:33,14.96710003,0.0003201,69.9999,297.7207,255.5219,104.5584,-4.3399e-05,-5.88e-06,0.0,0 STARLINK-3106,1 49164U 21082AL  22235.42400285 -.00000588  00000-0 -43399-4 0  9991,2 49164  69.9999 297.7207 0003201 255.5219 104.5584 14.96710003 53776,6955.206999999999,96.211,579.298,574.846,0.0
49164.0,STARLINK-3106,PAYLOAD,2022-08-23 16:35:31,14.9670845,0.0003171,69.9999,297.0482,256.3811,103.6994,-4.4267e-05,-5.98e-06,0.0,0 STARLINK-3106,1 49164U 21082AL  22235.69133276 -.00000598  00000-0 -44267-4 0  9999,2 49164  69.9999 297.0482 0003171 256.3811 103.6994 14.96708450 53810,6955.212,96.211,579.2819999999998,574.871,0.0
49164.0,STARLINK-3106,PAYLOAD,2022-08-24 11:50:22,14.96706561,0.0003256999999999,69.9995,295.0311,255.9333,104.1463,8.0409e-05,8.29e-06,0.0,0 STARLINK-3106,1 49164U 21082AL  22236.49331927  .00000829  00000-0  80409-4 0  9994,2 49164  69.9995 295.0311 0003257 255.9333 104.1463 14.96706561 53935,6955.218000000003,96.211,579.3480000000002,574.817,0.0
49164.0,STARLINK-3106,PAYLOAD,2022-08-24 13:26:37,14.96706801,0.0003253999999999,69.9995,294.863,255.9325,104.1472,8.1387e-05,8.400000000000001e-06,0.0,0 STARLINK-3106,1 49164U 21082AL  22236.56015146  .00000840  00000-0  81387-4 0  9993,2 49164  69.9995 294.8630 0003254 255.9325 104.1472 14.96706801 53942,6955.217,96.211,579.345,574.819,0.0
